CUBEBUG-2 (LO-74)       
1 39440U 13066AA  26177.30703342  .00004524  00000+0  41817-3 0  9999
2 39440  97.8903 126.3239 0057502 358.9510   1.1580 14.93833268678355
FUNCUBE-1 (AO-73)       
1 39444U 13066AE  26177.20421799  .00008222  00000+0  50781-3 0  9994
2 39444  97.8271 148.8384 0036562 170.3279 189.8662 15.09588977681023
UWE-3                   
1 39446U 13066AG  26176.83787144  .00004431  00000+0  38106-3 0  9998
2 39446  97.8708 132.9703 0046807 291.8607  67.7640 14.97092153678877
UNISAT-6                
1 40012U 14033C   26177.14258198  .00002527  00000+0  27418-3 0  9999
2 40012  97.7883 329.6973 0045756  40.5030 319.9578 14.88286575647495
DUCHIFAT-1              
1 40021U 14033M   26176.71541040  .00141113  00000+0  13462-2 0  9990
2 40021  98.0450 237.0839 0001517 101.6443 258.4986 15.66313669657084
QB50P1                  
1 40025U 14033R   26177.24478525  .00009878  00000+0  48340-3 0  9995
2 40025  98.0964 189.0261 0008741 183.1826 176.9352 15.18390211654408
LILACSAT-2              
1 40908U 15049K   26177.23677084  .00018312  00000+0  30848-3 0  9990
2 40908  97.4639 214.4230 0006378 204.9181 155.1764 15.51731803597156
FOX-1A (AO-85)          
1 40967U 15058D   26177.27338541  .00002206  00000+0  20421-3 0  9992
2 40967  64.7749 250.7459 0130992  53.0595 308.2430 14.91005511114922
CAS-2T & KS-1Q          
1 41847U 16066G   26177.17512641  .00001615  00000+0  23266-3 0  9997
2 41847  98.3821 252.8088 0342903 102.3025 261.6774 14.44722034506098
RADFXSAT (FOX-1B)       
1 43017U 17073E   26176.60840684  .00008156  00000+0  35687-3 0  9992
2 43017  97.4699  43.6511 0148629 299.9037  58.7499 15.12826697466667
DIWATA-2B               
1 43678U 18084H   26177.23930803  .00002241  00000+0  18283-3 0  9993
2 43678  98.1205  13.8421 0012987 141.7134 218.5013 15.00488985417574
ES'HAIL 2               
1 43700U 18090A   26176.67268748  .00000155  00000+0  00000+0 0  9991
2 43700   0.0185 341.0996 0002207 148.5722  52.1049  1.00274106 27766
FOX-1CLIFF (AO-95)      
1 43770U 18099N   26176.66330514  .00013967  00000+0  53097-3 0  9990
2 43770  97.4386 236.8787 0007199 324.2566  35.8190 15.26877140414517
ITASAT                  
1 43786U 18099AE  26177.11177141  .00007445  00000+0  35672-3 0  9996
2 43786  97.4028 228.4453 0011232 327.0677  32.9856 15.19159970414266
JY1SAT (JO-97)          
1 43803U 18099AX  26177.09898852  .00019688  00000+0  60135-3 0  9996
2 43803  97.4134 239.9649 0005004 222.4437 137.6420 15.33922323414996
UWE-4                   
1 43880U 18111E   26177.27443682  .00037435  00000+0  74907-3 0  9995
2 43880  97.5841 106.0868 0004388 295.3128  64.7666 15.46670739412180
TIANYAN 01              
1 44881U 19093C   26177.26654019  .00000332  00000+0  43435-4 0  9993
2 44881  97.7531 249.2774 0014937  59.7855 300.4838 14.86530317352764
RS-44 & BREEZE-KM R/B   
1 44909U 19096E   26176.91785180  .00000020  00000+0  29842-4 0  9992
2 44909  82.5225 333.9025 0218451 123.8343 238.3763 12.79748985303460
SALSAT                  
1 46495U 20068K   26177.23713265  .00008443  00000+0  29407-3 0  9999
2 46495  97.8850 180.8533 0007806 269.3703  90.6642 15.29920409316745
XW-3 (CAS-9)            
1 50466U 21131B   26177.28734034  .00000549  00000+0  18307-3 0  9992
2 50466  98.4981 269.6278 0005359  75.2559 284.9224 14.41365358236425
GREENCUBE (IO-117)      
1 53109U 22080E   26176.74430124 -.00000003  00000+0  00000+0 0  9999
2 53109  70.1444 295.2691 0008975 287.7502  72.2178  6.42583224 92615
UMKA 1 (RS40S)          
1 57172U 23091G   26177.23930715  .00007503  00000+0  34136-3 0  9994
2 57172  97.5052 235.9017 0014298  89.7527 270.5346 15.20917363165388
CUBESX-HSE 3 (RS42S)    
1 57178U 23091N   26177.25686022  .00015465  00000+0  51055-3 0  9996
2 57178  97.5094 242.9590 0011579  66.3816 293.8639 15.31433259165815
MONITOR-3 (RS58S)       
1 57180U 23091Q   26177.23598253  .00012115  00000+0  44476-3 0  9993
2 57180  97.5087 240.7486 0012795  72.8551 287.4089 15.28016207165677
MONITOR-4 (RS57S)       
1 57182U 23091S   26177.28001874  .00011496  00000+0  42112-3 0  9994
2 57182  97.5079 240.7647 0012776  72.9470 287.3168 15.28101435165685
MONITOR-2 (RS39S)       
1 57184U 23091U   26177.27196755  .00005246  00000+0  25354-3 0  9993
2 57184  97.5073 235.4961 0012730  83.6823 276.5861 15.18989857165335
SVYATOBOR 1 (RS60S)     
1 57187U 23091X   26177.23545024  .00010085  00000+0  38541-3 0  9998
2 57187  97.5092 241.1026 0010562  67.2226 293.0128 15.26761893165697
VIZARD-METEO (RS38S)    
1 57189U 23091Z   26177.26719523  .00018871  00000+0  53438-3 0  9993
2 57189  97.5095 246.9352 0007591  49.5555 310.6350 15.36302210166085
POLYTECH-UNIVERSE 3 (R*)
1 57191U 23091AB  26177.23209104  .00006150  00000+0  29444-3 0  9999
2 57191  97.5049 234.9607 0017078  98.2484 262.0688 15.19195314165326
UTMN 2 (RS27S)          
1 57203U 23091AP  26177.13889981  .00015362  00000+0  49476-3 0  9991
2 57203  97.5090 244.4845 0008687  56.7092 303.4981 15.32259314165913
