OBJECT_NAME,OBJECT_ID,EPOCH,MEAN_MOTION,ECCENTRICITY,INCLINATION,RA_OF_ASC_NODE,ARG_OF_PERICENTER,MEAN_ANOMALY,EPHEMERIS_TYPE,CLASSIFICATION_TYPE,NORAD_CAT_ID,ELEMENT_SET_NO,REV_AT_EPOCH,BSTAR,MEAN_MOTION_DOT,MEAN_MOTION_DDOT
CUBEBUG-2 (LO-74),2013-066AA,2026-06-26T07:22:07.687488,14.93833268,.00575025,97.8903,126.3239,358.9510,1.1580,0,U,39440,999,67835,.4181653E-3,.4524E-4,0
FUNCUBE-1 (AO-73),2013-066AE,2026-06-26T04:54:04.434336,15.09588977,.00365625,97.8271,148.8384,170.3279,189.8662,0,U,39444,999,68102,.50781209E-3,.8222E-4,0
UWE-3,2013-066AG,2026-06-25T20:06:32.092416,14.97092153,.00468075,97.8708,132.9703,291.8607,67.7640,0,U,39446,999,67887,.38106409E-3,.4431E-4,0
UNISAT-6,2014-033C,2026-06-26T03:25:19.083072,14.88286575,.00457563,97.7883,329.6973,40.5030,319.9578,0,U,40012,999,64749,.27417583E-3,.2527E-4,0
DUCHIFAT-1,2014-033M,2026-06-25T17:10:11.458560,15.66313669,.00015176,98.0450,237.0839,101.6443,258.4986,0,U,40021,999,65708,.13462058E-2,.141113E-2,0
QB50P1,2014-033R,2026-06-26T05:52:29.445600,15.18390211,.00087417,98.0964,189.0261,183.1826,176.9352,0,U,40025,999,65440,.48339873E-3,.9878E-4,0
LILACSAT-2,2015-049K,2026-06-26T05:40:57.000576,15.51731803,.00063789,97.4639,214.4230,204.9181,155.1764,0,U,40908,999,59715,.30848462E-3,.18312E-3,0
FOX-1A (AO-85),2015-058D,2026-06-26T06:33:40.499424,14.91005511,.01309923,64.7749,250.7459,53.0595,308.2430,0,U,40967,999,11492,.20421051E-3,.2206E-4,0
CAS-2T & KS-1Q,2016-066G,2026-06-26T04:12:10.921824,14.44722034,.03429034,98.3821,252.8088,102.3025,261.6774,0,U,41847,999,50609,.23266035E-3,.1615E-4,0
RADFXSAT (FOX-1B),2017-073E,2026-06-25T14:36:06.350976,15.12826697,.01486298,97.4699,43.6511,299.9037,58.7499,0,U,43017,999,46666,.35687408E-3,.8156E-4,0
DIWATA-2B,2018-084H,2026-06-26T05:44:36.213792,15.00488985,.00129872,98.1205,13.8421,141.7134,218.5013,0,U,43678,999,41757,.18283369E-3,.2241E-4,0
ES'HAIL 2,2018-090A,2026-06-25T16:08:40.198272,1.00274106,.0002207,0.0185,341.0996,148.5722,52.1049,0,U,43700,999,2776,0,.155E-5,0
FOX-1CLIFF (AO-95),2018-099N,2026-06-25T15:55:09.564096,15.26877140,.00071992,97.4386,236.8787,324.2566,35.8190,0,U,43770,999,41451,.53096999E-3,.13967E-3,0
ITASAT,2018-099AE,2026-06-26T02:40:57.049824,15.19159970,.00112322,97.4028,228.4453,327.0677,32.9856,0,U,43786,999,41426,.3567229E-3,.7445E-4,0
JY1SAT (JO-97),2018-099AX,2026-06-26T02:22:32.608128,15.33922323,.00050048,97.4134,239.9649,222.4437,137.6420,0,U,43803,999,41499,.60134711E-3,.19688E-3,0
UWE-4,2018-111E,2026-06-26T06:35:11.341248,15.46670739,.00043885,97.5841,106.0868,295.3128,64.7666,0,U,43880,999,41218,.74906849E-3,.37435E-3,0
TIANYAN 01,2019-093C,2026-06-26T06:23:49.072416,14.86530317,.00149371,97.7531,249.2774,59.7855,300.4838,0,U,44881,999,35276,.4343515E-4,.332E-5,0
RS-44 & BREEZE-KM R/B,2019-096E,2026-06-25T22:01:42.395520,12.79748985,.02184513,82.5225,333.9025,123.8343,238.3763,0,U,44909,999,30346,.2984176E-4,.2E-6,0
SALSAT,2020-068K,2026-06-26T05:41:28.260960,15.29920409,.00078065,97.8850,180.8533,269.3703,90.6642,0,U,46495,999,31674,.29407466E-3,.8443E-4,0
XW-3 (CAS-9),2021-131B,2026-06-26T06:53:46.205376,14.41365358,.00053599,98.4981,269.6278,75.2559,284.9224,0,U,50466,999,23642,.18306746E-3,.549E-5,0
GREENCUBE (IO-117),2022-080E,2026-06-25T17:51:47.627136,6.42583224,.00089751,70.1444,295.2691,287.7502,72.2178,0,U,53109,999,9261,0,-.3E-7,0
UMKA 1 (RS40S),2023-091G,2026-06-26T05:44:36.137760,15.20917363,.00142981,97.5052,235.9017,89.7527,270.5346,0,U,57172,999,16538,.34136455E-3,.7503E-4,0
CUBESX-HSE 3 (RS42S),2023-091N,2026-06-26T06:09:52.723008,15.31433259,.00115795,97.5094,242.9590,66.3816,293.8639,0,U,57178,999,16581,.51054873E-3,.15465E-3,0
MONITOR-3 (RS58S),2023-091Q,2026-06-26T05:39:48.890592,15.28016207,.00127958,97.5087,240.7486,72.8551,287.4089,0,U,57180,999,16567,.44475879E-3,.12115E-3,0
MONITOR-4 (RS57S),2023-091S,2026-06-26T06:43:13.619136,15.28101435,.00127765,97.5079,240.7647,72.9470,287.3168,0,U,57182,999,16568,.42111983E-3,.11496E-3,0
MONITOR-2 (RS39S),2023-091U,2026-06-26T06:31:37.996320,15.18989857,.00127304,97.5073,235.4961,83.6823,276.5861,0,U,57184,999,16533,.253542E-3,.5246E-4,0
SVYATOBOR 1 (RS60S),2023-091X,2026-06-26T05:39:02.900736,15.26761893,.00105621,97.5092,241.1026,67.2226,293.0128,0,U,57187,999,16569,.38540502E-3,.10085E-3,0
VIZARD-METEO (RS38S),2023-091Z,2026-06-26T06:24:45.667872,15.36302210,.00075918,97.5095,246.9352,49.5555,310.6350,0,U,57189,999,16608,.53438412E-3,.18871E-3,0
POLYTECH-UNIVERSE 3 (RS46S),2023-091AB,2026-06-26T05:34:12.665856,15.19195314,.00170781,97.5049,234.9607,98.2484,262.0688,0,U,57191,999,16532,.29444032E-3,.615E-4,0
UTMN 2 (RS27S),2023-091AP,2026-06-26T03:20:00.943584,15.32259314,.00086876,97.5090,244.4845,56.7092,303.4981,0,U,57203,999,16591,.49476404E-3,.15362E-3,0
